ATLAS CENTAUR R/B       
1 06155U 72065B   25311.65218648  .00002075  00000+0  28860-3 0  9999
2 06155  35.0021 300.7137 0033197  63.1454 297.2635 14.77267242823208
SL-8 R/B                
1 08459U 75112B   25311.84047705  .00000459  00000+0  15997-3 0  9990
2 08459  74.0605 243.0456 0015544 359.7938   0.3207 14.38110377614353
SL-3 R/B                
1 10114U 77057B   25311.78720030  .00015441  00000+0  36601-3 0  9995
2 10114  97.5681 113.7876 0007937  12.4855 347.6586 15.41809180649521
SEASAT 1                
1 10967U 78064A   25311.74721932  .00000660  00000+0  22352-3 0  9993
2 10967 108.0059 229.6342 0002487 258.2634 101.8233 14.45999990488880
SL-14 R/B               
1 11267U 79011B   25311.70650556  .00001048  00000+0  10135-3 0  9996
2 11267  82.5263 212.2628 0017668 103.3745 256.9446 14.91703782510597
SL-8 R/B                
1 11574U 79089B   25311.73834663  .00000400  00000+0  12916-3 0  9998
2 11574  74.0681 316.7620 0015232 164.7978 195.3639 14.42246495418523
SL-14 R/B               
1 11672U 80005B   25311.70650775  .00001206  00000+0  12017-3 0  9991
2 11672  82.5152  62.9165 0015122 205.5286 154.5188 14.90719086458318
SL-8 R/B                
1 12139U 81003B   25311.65838177  .00031387  00000+0  87369-3 0  9992
2 12139  82.9339  42.4443 0283269 241.6244 115.6163 15.05119905296282
SL-3 R/B                
1 12465U 81046B   25311.78178207  .00017524  00000+0  45636-3 0  9994
2 12465  81.2332  75.7174 0020792  83.9556 276.4053 15.38525742419661
METEOR PRIRODA          
1 12585U 81065A   25311.79070153  .00580967  16539-3  82769-3 0  9992
2 12585  97.4667  15.8241 0003526 270.6274  89.4603 16.05591648425193
SL-3 R/B                
1 12904U 81103B   25311.83418834  .00009181  00000+0  42916-3 0  9993
2 12904  81.1603 356.2170 0013945 350.0067  10.0884 15.19583756954711
SL-3 R/B                
1 13068U 82013B   25311.77306426  .00006790  00000+0  30654-3 0  9991
2 13068  81.1732 303.5298 0021821 228.0393 131.8980 15.20623557385814
