CCSDS_OMM_VERS = 2.0
CREATION_DATE  = 
ORIGINATOR     = 

OBJECT_NAME    = ATLAS CENTAUR R/B
OBJECT_ID      = 1972-065B
CENTER_NAME    = EARTH
REF_FRAME      = TEME
TIME_SYSTEM    = UTC
MEAN_ELEMENT_THEORY = SGP/SGP4

EPOCH          = 2025-11-07T15:39:08.911872
MEAN_MOTION    = 14.77267242
ECCENTRICITY   = .0033197
INCLINATION    = 35.0021
RA_OF_ASC_NODE = 300.7137
ARG_OF_PERICENTER = 63.1454
MEAN_ANOMALY   = 297.2635

EPHEMERIS_TYPE = 0
CLASSIFICATION_TYPE = U
NORAD_CAT_ID   = 6155
ELEMENT_SET_NO = 999
REV_AT_EPOCH   = 82320
BSTAR          = .2886E-3
MEAN_MOTION_DOT = .2075E-4
MEAN_MOTION_DDOT = 0

CCSDS_OMM_VERS = 2.0
CREATION_DATE  = 
ORIGINATOR     = 

OBJECT_NAME    = SL-8 R/B
OBJECT_ID      = 1975-112B
CENTER_NAME    = EARTH
REF_FRAME      = TEME
TIME_SYSTEM    = UTC
MEAN_ELEMENT_THEORY = SGP/SGP4

EPOCH          = 2025-11-07T20:10:17.217120
MEAN_MOTION    = 14.38110377
ECCENTRICITY   = .0015544
INCLINATION    = 74.0605
RA_OF_ASC_NODE = 243.0456
ARG_OF_PERICENTER = 359.7938
MEAN_ANOMALY   = 0.3207

EPHEMERIS_TYPE = 0
CLASSIFICATION_TYPE = U
NORAD_CAT_ID   = 8459
ELEMENT_SET_NO = 999
REV_AT_EPOCH   = 61435
BSTAR          = .15997E-3
MEAN_MOTION_DOT = .459E-5
MEAN_MOTION_DDOT = 0

CCSDS_OMM_VERS = 2.0
CREATION_DATE  = 
ORIGINATOR     = 

OBJECT_NAME    = SL-3 R/B
OBJECT_ID      = 1977-057B
CENTER_NAME    = EARTH
REF_FRAME      = TEME
TIME_SYSTEM    = UTC
MEAN_ELEMENT_THEORY = SGP/SGP4

EPOCH          = 2025-11-07T18:53:34.105920
MEAN_MOTION    = 15.41809180
ECCENTRICITY   = .0007937
INCLINATION    = 97.5681
RA_OF_ASC_NODE = 113.7876
ARG_OF_PERICENTER = 12.4855
MEAN_ANOMALY   = 347.6586

EPHEMERIS_TYPE = 0
CLASSIFICATION_TYPE = U
NORAD_CAT_ID   = 10114
ELEMENT_SET_NO = 999
REV_AT_EPOCH   = 64952
BSTAR          = .36601E-3
MEAN_MOTION_DOT = .15441E-3
MEAN_MOTION_DDOT = 0

CCSDS_OMM_VERS = 2.0
CREATION_DATE  = 
ORIGINATOR     = 

OBJECT_NAME    = SEASAT 1
OBJECT_ID      = 1978-064A
CENTER_NAME    = EARTH
REF_FRAME      = TEME
TIME_SYSTEM    = UTC
MEAN_ELEMENT_THEORY = SGP/SGP4

EPOCH          = 2025-11-07T17:55:59.749248
MEAN_MOTION    = 14.45999990
ECCENTRICITY   = .0002487
INCLINATION    = 108.0059
RA_OF_ASC_NODE = 229.6342
ARG_OF_PERICENTER = 258.2634
MEAN_ANOMALY   = 101.8233

EPHEMERIS_TYPE = 0
CLASSIFICATION_TYPE = U
NORAD_CAT_ID   = 10967
ELEMENT_SET_NO = 999
REV_AT_EPOCH   = 48888
BSTAR          = .22352E-3
MEAN_MOTION_DOT = .66E-5
MEAN_MOTION_DDOT = 0

CCSDS_OMM_VERS = 2.0
CREATION_DATE  = 
ORIGINATOR     = 

OBJECT_NAME    = SL-14 R/B
OBJECT_ID      = 1979-011B
CENTER_NAME    = EARTH
REF_FRAME      = TEME
TIME_SYSTEM    = UTC
MEAN_ELEMENT_THEORY = SGP/SGP4

EPOCH          = 2025-11-07T16:57:22.080384
MEAN_MOTION    = 14.91703782
ECCENTRICITY   = .0017668
INCLINATION    = 82.5263
RA_OF_ASC_NODE = 212.2628
ARG_OF_PERICENTER = 103.3745
MEAN_ANOMALY   = 256.9446

EPHEMERIS_TYPE = 0
CLASSIFICATION_TYPE = U
NORAD_CAT_ID   = 11267
ELEMENT_SET_NO = 999
REV_AT_EPOCH   = 51059
BSTAR          = .10135E-3
MEAN_MOTION_DOT = .1048E-4
MEAN_MOTION_DDOT = 0

CCSDS_OMM_VERS = 2.0
CREATION_DATE  = 
ORIGINATOR     = 

OBJECT_NAME    = SL-8 R/B
OBJECT_ID      = 1979-089B
CENTER_NAME    = EARTH
REF_FRAME      = TEME
TIME_SYSTEM    = UTC
MEAN_ELEMENT_THEORY = SGP/SGP4

EPOCH          = 2025-11-07T17:43:13.148832
MEAN_MOTION    = 14.42246495
ECCENTRICITY   = .0015232
INCLINATION    = 74.0681
RA_OF_ASC_NODE = 316.7620
ARG_OF_PERICENTER = 164.7978
MEAN_ANOMALY   = 195.3639

EPHEMERIS_TYPE = 0
CLASSIFICATION_TYPE = U
NORAD_CAT_ID   = 11574
ELEMENT_SET_NO = 999
REV_AT_EPOCH   = 41852
BSTAR          = .12916E-3
MEAN_MOTION_DOT = .4E-5
MEAN_MOTION_DDOT = 0

CCSDS_OMM_VERS = 2.0
CREATION_DATE  = 
ORIGINATOR     = 

OBJECT_NAME    = SL-14 R/B
OBJECT_ID      = 1980-005B
CENTER_NAME    = EARTH
REF_FRAME      = TEME
TIME_SYSTEM    = UTC
MEAN_ELEMENT_THEORY = SGP/SGP4

EPOCH          = 2025-11-07T16:57:22.269600
MEAN_MOTION    = 14.90719086
ECCENTRICITY   = .0015122
INCLINATION    = 82.5152
RA_OF_ASC_NODE = 62.9165
ARG_OF_PERICENTER = 205.5286
MEAN_ANOMALY   = 154.5188

EPHEMERIS_TYPE = 0
CLASSIFICATION_TYPE = U
NORAD_CAT_ID   = 11672
ELEMENT_SET_NO = 999
REV_AT_EPOCH   = 45831
BSTAR          = .12017E-3
MEAN_MOTION_DOT = .1206E-4
MEAN_MOTION_DDOT = 0

CCSDS_OMM_VERS = 2.0
CREATION_DATE  = 
ORIGINATOR     = 

OBJECT_NAME    = SL-8 R/B
OBJECT_ID      = 1981-003B
CENTER_NAME    = EARTH
REF_FRAME      = TEME
TIME_SYSTEM    = UTC
MEAN_ELEMENT_THEORY = SGP/SGP4

EPOCH          = 2025-11-07T15:48:04.184928
MEAN_MOTION    = 15.05119905
ECCENTRICITY   = .0283269
INCLINATION    = 82.9339
RA_OF_ASC_NODE = 42.4443
ARG_OF_PERICENTER = 241.6244
MEAN_ANOMALY   = 115.6163

EPHEMERIS_TYPE = 0
CLASSIFICATION_TYPE = U
NORAD_CAT_ID   = 12139
ELEMENT_SET_NO = 999
REV_AT_EPOCH   = 29628
BSTAR          = .87369E-3
MEAN_MOTION_DOT = .31387E-3
MEAN_MOTION_DDOT = 0

CCSDS_OMM_VERS = 2.0
CREATION_DATE  = 
ORIGINATOR     = 

OBJECT_NAME    = SL-3 R/B
OBJECT_ID      = 1981-046B
CENTER_NAME    = EARTH
REF_FRAME      = TEME
TIME_SYSTEM    = UTC
MEAN_ELEMENT_THEORY = SGP/SGP4

EPOCH          = 2025-11-07T18:45:45.970848
MEAN_MOTION    = 15.38525742
ECCENTRICITY   = .0020792
INCLINATION    = 81.2332
RA_OF_ASC_NODE = 75.7174
ARG_OF_PERICENTER = 83.9556
MEAN_ANOMALY   = 276.4053

EPHEMERIS_TYPE = 0
CLASSIFICATION_TYPE = U
NORAD_CAT_ID   = 12465
ELEMENT_SET_NO = 999
REV_AT_EPOCH   = 41966
BSTAR          = .45636E-3
MEAN_MOTION_DOT = .17524E-3
MEAN_MOTION_DDOT = 0

CCSDS_OMM_VERS = 2.0
CREATION_DATE  = 
ORIGINATOR     = 

OBJECT_NAME    = METEOR PRIRODA
OBJECT_ID      = 1981-065A
CENTER_NAME    = EARTH
REF_FRAME      = TEME
TIME_SYSTEM    = UTC
MEAN_ELEMENT_THEORY = SGP/SGP4

EPOCH          = 2025-11-07T18:58:36.612192
MEAN_MOTION    = 16.05591648
ECCENTRICITY   = .0003526
INCLINATION    = 97.4667
RA_OF_ASC_NODE = 15.8241
ARG_OF_PERICENTER = 270.6274
MEAN_ANOMALY   = 89.4603

EPHEMERIS_TYPE = 0
CLASSIFICATION_TYPE = U
NORAD_CAT_ID   = 12585
ELEMENT_SET_NO = 999
REV_AT_EPOCH   = 42519
BSTAR          = .82769E-3
MEAN_MOTION_DOT = .580967E-2
MEAN_MOTION_DDOT = .16539E-3

CCSDS_OMM_VERS = 2.0
CREATION_DATE  = 
ORIGINATOR     = 

OBJECT_NAME    = SL-3 R/B
OBJECT_ID      = 1981-103B
CENTER_NAME    = EARTH
REF_FRAME      = TEME
TIME_SYSTEM    = UTC
MEAN_ELEMENT_THEORY = SGP/SGP4

EPOCH          = 2025-11-07T20:01:13.872576
MEAN_MOTION    = 15.19583756
ECCENTRICITY   = .0013945
INCLINATION    = 81.1603
RA_OF_ASC_NODE = 356.2170
ARG_OF_PERICENTER = 350.0067
MEAN_ANOMALY   = 10.0884

EPHEMERIS_TYPE = 0
CLASSIFICATION_TYPE = U
NORAD_CAT_ID   = 12904
ELEMENT_SET_NO = 999
REV_AT_EPOCH   = 95471
BSTAR          = .42916E-3
MEAN_MOTION_DOT = .9181E-4
MEAN_MOTION_DDOT = 0

CCSDS_OMM_VERS = 2.0
CREATION_DATE  = 
ORIGINATOR     = 

OBJECT_NAME    = SL-3 R/B
OBJECT_ID      = 1982-013B
CENTER_NAME    = EARTH
REF_FRAME      = TEME
TIME_SYSTEM    = UTC
MEAN_ELEMENT_THEORY = SGP/SGP4

EPOCH          = 2025-11-07T18:33:12.752064
MEAN_MOTION    = 15.20623557
ECCENTRICITY   = .0021821
INCLINATION    = 81.1732
RA_OF_ASC_NODE = 303.5298
ARG_OF_PERICENTER = 228.0393
MEAN_ANOMALY   = 131.8980

EPHEMERIS_TYPE = 0
CLASSIFICATION_TYPE = U
NORAD_CAT_ID   = 13068
ELEMENT_SET_NO = 999
REV_AT_EPOCH   = 38581
BSTAR          = .30654E-3
MEAN_MOTION_DOT = .679E-4
MEAN_MOTION_DDOT = 0

